OBJECT_NAME,OBJECT_ID,EPOCH,MEAN_MOTION,ECCENTRICITY,INCLINATION,RA_OF_ASC_NODE,ARG_OF_PERICENTER,MEAN_ANOMALY,EPHEMERIS_TYPE,CLASSIFICATION_TYPE,NORAD_CAT_ID,ELEMENT_SET_NO,REV_AT_EPOCH,BSTAR,MEAN_MOTION_DOT,MEAN_MOTION_DDOT
SHIJIAN-31,2026-136A,2026-06-16T20:21:12.015072,2.28095748,.7310406,63.4649,356.1810,171.7246,356.2040,0,U,69570,999,5,.28088E-3,.6163E-4,.24751E-6
GUOWANG OBJECT A,2026-137A,2026-06-17T21:02:27.481344,13.92196762,.0012368,50.0042,252.6801,229.2629,130.7197,0,U,69572,999,11,.21954E-4,-.119E-5,0
GUOWANG OBJECT B,2026-137B,2026-06-17T21:02:23.956224,13.92275647,.0012095,50.0040,252.6781,228.2094,131.7772,0,U,69573,999,12,.21887E-4,-.119E-5,0
GUOWANG OBJECT C,2026-137C,2026-06-17T21:02:19.085856,13.92377598,.0011868,49.9993,252.6685,227.8784,132.1107,0,U,69574,999,12,.2178E-4,-.119E-5,0
GUOWANG OBJECT D,2026-137D,2026-06-17T21:02:17.517696,13.92412947,.0011235,50.0004,252.6703,229.3398,130.6525,0,U,69575,999,12,.21744E-4,-.119E-5,0
GUOWANG OBJECT E,2026-137E,2026-06-17T17:35:34.212768,13.92449893,.0011193,50.0055,253.2533,230.0196,129.9722,0,U,69576,999,10,.23742E-4,-.116E-5,0
GUOWANG OBJECT F,2026-137F,2026-06-17T15:52:09.172128,13.92579245,.0010611,50.0037,253.5371,230.6584,129.3376,0,U,69577,999,9,.24306E-4,-.115E-5,0
GUOWANG OBJECT G,2026-137G,2026-06-17T15:52:08.093856,13.92606941,.0010519,50.0009,253.5260,230.8468,129.1497,0,U,69578,999,9,.24279E-4,-.115E-5,0
GUOWANG OBJECT H,2026-137H,2026-06-17T17:35:26.016864,13.92666298,.0010128,50.0048,253.2431,233.9980,125.9981,0,U,69579,999,10,.2353E-4,-.116E-5,0
GUOWANG OBJECT J,2026-137J,2026-06-17T21:01:59.022912,13.92814567,.0009676,50.0003,252.6655,229.0003,131.0061,0,U,69580,999,12,.21369E-4,-.119E-5,0
2026-138A,2026-138A,2026-06-17T20:20:29.190912,14.15574625,.0010079,55.1445,278.7156,276.1259,83.8566,0,U,69582,999,11,.36554E-4,-.82E-6,0
2026-138B,2026-138B,2026-06-17T20:20:22.311744,14.15754195,.0009359,55.1468,278.7175,279.7513,80.2404,0,U,69583,999,11,.38644E-4,-.77E-6,0
2026-138C,2026-138C,2026-06-17T20:20:19.236768,14.15831733,.0008547,55.1459,278.7184,276.6941,83.3061,0,U,69584,999,11,.39402E-4,-.76E-6,0
2026-138D,2026-138D,2026-06-17T20:20:15.213120,14.15932941,.0008334,55.1466,278.7107,275.9372,84.0653,0,U,69585,999,11,.3997E-4,-.74E-6,0
2026-138E,2026-138E,2026-06-17T16:56:54.274272,14.15991898,.0007694,55.1398,279.2280,274.2812,85.7284,0,U,69586,999,9,.4391E-4,-.67E-6,0
2026-138F,2026-138F,2026-06-17T18:38:33.412704,14.15995399,.0008431,55.1475,278.9835,284.5463,75.4576,0,U,69587,999,10,.43411E-4,-.68E-6,0
2026-138G,2026-138G,2026-06-17T20:20:05.944992,14.16172912,.0007205,55.1461,278.7117,278.2829,81.7329,0,U,69588,999,11,.4233E-4,-.7E-6,0
BLUEBIRD OBJECT A,2026-139A,2026-06-17T20:49:20.437824,15.12492987,.0003688,52.9984,259.4732,322.0387,38.0343,0,U,69589,999,9,.51823E-4,.613E-5,0
BLUEBIRD OBJECT B,2026-139B,2026-06-17T22:24:23.718240,15.12664370,.0003705,52.9957,259.1737,335.3231,24.7582,0,U,69590,999,9,.51729E-4,.615E-5,0
BLUEBIRD OBJECT C,2026-139C,2026-06-17T16:03:47.640960,15.12770881,.0003918,52.9976,260.3752,341.5126,18.5722,0,U,69591,999,5,.10726E-3,.1603E-4,0
