SHIJIAN-31              
1 69570U 26136A   26167.84805573  .00006163  24751-6  28088-3 0  9997
2 69570  63.4649 356.1810 7310406 171.7246 356.2040  2.28095748    54
GUOWANG OBJECT A        
1 69572U 26137A   26168.87670696 -.00000119  00000+0  21954-4 0  9996
2 69572  50.0042 252.6801 0012368 229.2629 130.7197 13.92196762   114
GUOWANG OBJECT B        
1 69573U 26137B   26168.87666616 -.00000119  00000+0  21887-4 0  9999
2 69573  50.0040 252.6781 0012095 228.2094 131.7772 13.92275647   123
GUOWANG OBJECT C        
1 69574U 26137C   26168.87660979 -.00000119  00000+0  21780-4 0  9998
2 69574  49.9993 252.6685 0011868 227.8784 132.1107 13.92377598   124
GUOWANG OBJECT D        
1 69575U 26137D   26168.87659164 -.00000119  00000+0  21744-4 0  9993
2 69575  50.0004 252.6703 0011235 229.3398 130.6525 13.92412947   123
GUOWANG OBJECT E        
1 69576U 26137E   26168.73303487 -.00000116  00000+0  23742-4 0  9990
2 69576  50.0055 253.2533 0011193 230.0196 129.9722 13.92449893   104
GUOWANG OBJECT F        
1 69577U 26137F   26168.66121727 -.00000115  00000+0  24306-4 0  9994
2 69577  50.0037 253.5371 0010611 230.6584 129.3376 13.92579245    91
GUOWANG OBJECT G        
1 69578U 26137G   26168.66120479 -.00000115  00000+0  24279-4 0  9997
2 69578  50.0009 253.5260 0010519 230.8468 129.1497 13.92606941    94
GUOWANG OBJECT H        
1 69579U 26137H   26168.73294001 -.00000116  00000+0  23530-4 0  9999
2 69579  50.0048 253.2431 0010128 233.9980 125.9981 13.92666298   109
GUOWANG OBJECT J        
1 69580U 26137J   26168.87637758 -.00000119  00000+0  21369-4 0  9997
2 69580  50.0003 252.6655 0009676 229.0003 131.0061 13.92814567   124
2026-138A               
1 69582U 26138A   26168.84756008 -.00000082  00000+0  36554-4 0  9998
2 69582  55.1445 278.7156 0010079 276.1259  83.8566 14.15574625   119
2026-138B               
1 69583U 26138B   26168.84748046 -.00000077  00000+0  38644-4 0  9998
2 69583  55.1468 278.7175 0009359 279.7513  80.2404 14.15754195   111
2026-138C               
1 69584U 26138C   26168.84744487 -.00000076  00000+0  39402-4 0  9996
2 69584  55.1459 278.7184 0008547 276.6941  83.3061 14.15831733   118
2026-138D               
1 69585U 26138D   26168.84739830 -.00000074  00000+0  39970-4 0  9991
2 69585  55.1466 278.7107 0008334 275.9372  84.0653 14.15932941   114
2026-138E               
1 69586U 26138E   26168.70618373 -.00000067  00000+0  43910-4 0  9996
2 69586  55.1398 279.2280 0007694 274.2812  85.7284 14.15991898    97
2026-138F               
1 69587U 26138F   26168.77677561 -.00000068  00000+0  43411-4 0  9995
2 69587  55.1475 278.9835 0008431 284.5463  75.4576 14.15995399   104
2026-138G               
1 69588U 26138G   26168.84729103 -.00000070  00000+0  42330-4 0  9996
2 69588  55.1461 278.7117 0007205 278.2829  81.7329 14.16172912   111
BLUEBIRD OBJECT A       
1 69589U 26139A   26168.86759766  .00000613  00000+0  51823-4 0  9997
2 69589  52.9984 259.4732 0003688 322.0387  38.0343 15.12492987    96
BLUEBIRD OBJECT B       
1 69590U 26139B   26168.93360785  .00000615  00000+0  51729-4 0  9993
2 69590  52.9957 259.1737 0003705 335.3231  24.7582 15.12664370    99
BLUEBIRD OBJECT C       
1 69591U 26139C   26168.66930140  .00001603  00000+0  10726-3 0  9991
2 69591  52.9976 260.3752 0003918 341.5126  18.5722 15.12770881    58
